INTELSAT 902 (IS-902)   
1 26900U 01039A   26186.37701524 -.00000273  00000+0  00000+0 0  9993
2 26900   6.1619  71.5603 0004300  30.8596 266.5630  1.00270857 90874
INTELSAT 904 (IS-904)   
1 27380U 02007A   26186.42786367 -.00000215  00000+0  00000+0 0  9992
2 27380   6.9623  68.9648 0006038  18.9332 318.0715  1.00270515 51947
DIRECTV 5 (TEMPO 1)     
1 27426U 02023A   26186.56205764 -.00000046  00000+0  00000+0 0  9995
2 27426   4.9215  75.0837 0003460  42.4456 258.2609  1.00271556 88300
INTELSAT 905 (IS-905)   
1 27438U 02027A   26185.76539633  .00000103  00000+0  00000+0 0  9991
2 27438   6.7946  69.5884 0003899  37.7783 313.7493  1.00272930 51530
GALAXY 3C (G-3C)        
1 27445U 02030A   26186.13024252 -.00000141  00000+0  00000+0 0  9994
2 27445   3.7762  77.7473 0001805  32.1865 125.2617  1.00271566 46678
INTELSAT 906 (IS-906)   
1 27513U 02041A   26186.23292038  .00000024  00000+0  00000+0 0  9991
2 27513   5.8472  72.6991 0004041  13.2338 345.2811  1.00271099 87209
GALAXY 13 (HORIZONS-1)  
1 27954U 03044A   26186.54477824  .00000146  00000+0  00000+0 0  9991
2 27954   1.4658  83.6287 0001726  19.1192 226.8957  1.00273610 46757
INTELSAT 10-02          
1 28358U 04022A   26186.00620413  .00000002  00000+0  00000+0 0  9993
2 28358   0.0397 258.3722 0000499 291.2155  94.6491  1.00270331 80731
DIRECTV 8               
1 28659U 05019A   26186.56408964  .00000000  00000+0  00000+0 0  9998
2 28659   0.0219  43.1954 0003146  76.6613 247.7267  1.00270132 77255
GALAXY 28 (G-28)        
1 28702U 05022A   26185.92973199 -.00000189  00000+0  00000+0 0  9996
2 28702   3.3414  78.7199 0002414  25.0359 126.7797  1.00269863 52159
GALAXY 16 (G-16)        
1 29236U 06023A   26186.48577424 -.00000113  00000+0  00000+0 0  9991
2 29236   0.0288 137.9656 0002616 327.9973 253.3975  1.00271157 73158
DIRECTV 9S              
1 29494U 06043A   26186.55778925 -.00000101  00000+0  00000+0 0  9993
2 29494   2.4651  80.6893 0005253  27.0136 275.4583  1.00271499 51560
GALAXY 17 (G-17)        
1 31307U 07016B   26186.55987172 -.00000194  00000+0  00000+0 0  9998
2 31307   3.0152  79.6762 0003878  26.1866 294.2205  1.00269900 69982
INTELSAT 11 (IS-11)     
1 32253U 07044B   26186.62137289  .00000072  00000+0  00000+0 0  9998
2 32253   3.6102  78.4517 0003697  93.3467  20.1944  0.99048843 68636
HORIZONS-2              
1 32388U 07063B   26186.49080093 -.00000241  00000+0  00000+0 0  9992
2 32388   2.6462  80.4103 0003938  11.5162 294.4498  1.00273139 67998
DIRECTV 11              
1 32729U 08013A   26186.55709838 -.00000112  00000+0  00000+0 0  9996
2 32729   0.0453 214.1803 0000331 237.6183 293.1282  1.00271293 45778
GALAXY 18 (G-18)        
1 32951U 08024A   26186.05334317  .00000038  00000+0  00000+0 0  9992
2 32951   0.0194  73.8721 0003090  38.5203  66.8693  1.00272403 46037
GALAXY 19 (G-19)        
1 33376U 08045A   26186.55744505 -.00000125  00000+0  00000+0 0  9994
2 33376   0.0442 243.0433 0002904 241.0370 263.1428  1.00270852 65085
FM-5                    
1 35493U 09034A   26183.77931601 -.00000189  00000+0  00000+0 0  9991
2 35493   0.0343 275.0250 0000963  71.7322 128.4433  1.00271535 46804
INTELSAT 14 (IS-14)     
1 36097U 09064A   26186.49652096 -.00000260  00000+0  00000+0 0  9995
2 36097   0.0102 319.6479 0002506 147.1238 310.4796  1.00272233 60789
INTELSAT 15 (IS-15)     
1 36106U 09067A   26186.45103073 -.00000172  00000+0  00000+0 0  9993
2 36106   0.0052  51.6530 0002309  60.0662  59.2529  1.00271724 41415
DIRECTV 12              
1 36131U 09075A   26183.63349326 -.00000092  00000+0  00000+0 0  9991
2 36131   0.0418 186.0830 0000293 277.3252 302.5946  1.00269592 46707
INTELSAT 16 (IS-16)     
1 36397U 10006A   26186.56160507 -.00000231  00000+0  00000+0 0  9993
2 36397   0.0110  41.4612 0002412  82.9208 285.1570  1.00271270 59831
XM-5                    
1 37185U 10053A   26183.85406361 -.00000012  00000+0  00000+0 0  9998
2 37185   0.0667 268.1133 0002415 288.6084 276.4302  1.00271810 57643
INTELSAT 17 (IS-17)     
1 37238U 10065B   26186.51844773  .00000012  00000+0  00000+0 0  9998
2 37238   0.0049  52.7565 0002565  55.7999  67.5807  1.00272227 53431
INTELSAT 28 (IS-28)     
1 37392U 11016A   26186.42786367 -.00000212  00000+0  00000+0 0  9993
2 37392   1.8503  82.4089 0003824  25.8482 297.4546  1.00271051 53462
INTELSAT 18 (IS-18)     
1 37834U 11056A   26186.45117868  .00000066  00000+0  00000+0 0  9991
2 37834   0.0188 292.5048 0001922 180.8739 152.4864  1.00271952 53997
INTELSAT 22 (IS-22)     
1 38098U 12011A   26186.59102735 -.00000045  00000+0  00000+0 0  9996
2 38098   0.0226  59.3829 0001711  42.6977 106.3595  1.00271439  7374
INTELSAT 19 (IS-19)     
1 38356U 12030A   26186.52670656 -.00000043  00000+0  00000+0 0  9997
2 38356   0.0165  41.7879 0003285  73.6475 163.6990  1.00271542 50635
INTELSAT 20 (IS-20)     
1 38740U 12043A   26186.37628846 -.00000011  00000+0  00000+0 0  9990
2 38740   0.0105  54.7951 0001292 124.8987 307.6269  1.00270808 50930
INTELSAT 21 (IS-21)     
1 38749U 12045A   26186.49392095 -.00000271  00000+0  00000+0 0  9996
2 38749   0.0175 297.3430 0001840 184.2465 281.7196  1.00271265 50707
INTELSAT 23 (IS-23)     
1 38867U 12057A   26185.35432409 -.00000273  00000+0  00000+0 0  9990
2 38867   0.0158  22.2071 0000499 191.2104 143.4564  1.00266390 50124
FM-6                    
1 39360U 13058A   26183.70211649 -.00000005  00000+0  00000+0 0  9992
2 39360   0.0160  40.7600 0001960 138.6453 237.7772  1.00271889 46228
INTELSAT 30 (IS-30)     
1 40271U 14062A   26186.21468787 -.00000138  00000+0  00000+0 0  9994
2 40271   0.0182  48.3724 0001695 343.0020 234.0864  1.00276491  6977
DIRECTV 14              
1 40333U 14078B   26186.55701171 -.00000112  00000+0  00000+0 0  9996
2 40333   0.0117  38.6757 0000109 342.0332   4.1209  1.00271312 42220
DIRECTV 15              
1 40663U 15026A   26185.98605395 -.00000090  00000+0  00000+0 0  9998
2 40663   0.0181  69.4379 0000300 276.8843 188.7729  1.00274623 40641
SKY MEXICO-1            
1 40664U 15026B   26186.56108507 -.00000221  00000+0  00000+0 0  9993
2 40664   0.0173  67.2170 0002464  55.9345 283.6050  1.00272193 40635
INTELSAT 34 (IS-34)     
1 40874U 15039A   26186.20926027 -.00000272  00000+0  00000+0 0  9992
2 40874   0.0093 349.4006 0000293  41.4792 272.1706  1.00271717 39816
INTELSAT 31 (IS-31)     
1 41581U 16035A   26186.13015587 -.00000138  00000+0  00000+0 0  9998
2 41581   0.0394 205.6144 0000944  64.2305 325.0988  1.00273064 36867
INTELSAT 36 (IS-36)     
1 41747U 16053A   26186.16235706 -.00000011  00000+0  00000+0 0  9992
2 41747   0.0097  10.0275 0002215 335.4655  64.6192  1.00270251 36136
INTELSAT 32E (IS-32E)   
1 41945U 17007B   26186.17121042  .00000000  00000+0  00000+0 0  9997
2 41945   0.0170  17.7536 0000840 346.9082 296.9814  1.00276571 34405
INTELSAT 35E (IS-35E)   
1 42818U 17041A   26186.44382245 -.00000224  00000+0  00000+0 0  9998
2 42818   0.0190  38.6191 0001899  62.8398 307.2681  1.00272942 32993
INTELSAT 37E (IS-37E)   
1 42950U 17059A   26186.43055035 -.00000127  00000+0  00000+0 0  9999
2 42950   0.0168  50.6062 0002731  54.8223 315.0045  1.00272461 32245
AZERSPACE 2 (IS-38)     
1 43632U 18074A   26186.58561185  .00000150  00000+0  00000+0 0  9994
2 43632   0.0184 347.9268 0001451 115.0350  76.5561  1.00270634 28630
HORIZONS-3E             
1 43633U 18074B   26185.89731693 -.00000018  00000+0  00000+0 0  9995
2 43633   0.0397 223.4726 0000751  76.0728 115.4029  1.00268688 28516
AT&T T-16               
1 44333U 19034A   26186.20031322 -.00000102  00000+0  00000+0 0  9992
2 44333   0.0143  57.8212 0000440 271.1422 285.4985  1.00270256 25819
INTELSAT 39 (IS-39)     
1 44476U 19049B   26186.60093756  .00000000  00000+0  00000+0 0  9995
2 44476   0.0201  28.5981 0000724 299.5808 233.7048  1.00269435 25315
GALAXY 30 (G-30)        
1 46114U 20056C   26186.56685059  .00000050  00000+0  00000+0 0  9999
2 46114   0.0183  35.3707 0001999  70.3162 256.9538  1.00273371 21478
GALAXY 33 (G-33)        
1 54026U 22128A   26186.56961823  .00000093  00000+0  00000+0 0  9995
2 54026   0.0189  58.9728 0001929  42.5404 254.1132  1.00271550 13920
GALAXY 34 (G-34)        
1 54027U 22128B   26186.56913852  .00000000  00000+0  00000+0 0  9993
2 54027   0.0173  12.2475 0001801 102.7238 244.4850  1.00273735 14094
GALAXY 31 (G-31)        
1 54243U 22153A   26186.55276502  .00000027  00000+0  00000+0 0  9993
2 54243   0.0231  93.0472 0001418  12.6340 255.8595  1.00272406  7313
GALAXY 32 (G-32)        
1 54244U 22153B   26185.98839396 -.00000161  00000+0  00000+0 0  9996
2 54244   0.0095 351.1203 0001813  56.4825 140.2192  1.00272054 13322
GALAXY 35 (G-35)        
1 54741U 22170A   26186.55822506 -.00000149  00000+0  00000+0 0  9992
2 54741   0.0179  87.0306 0002169  19.2789 285.1039  1.00272132 13075
GALAXY 36 (G-36)        
1 54742U 22170B   26186.55909172 -.00000172  00000+0  00000+0 0  9994
2 54742   0.0161  76.3527 0002771  19.8185 299.6589  1.00271586 12956
GALAXY 37 (G-37)        
1 57493U 23112A   26186.56754456  .00000000  00000+0  00000+0 0  9990
2 57493   0.0215  33.4370 0001849  81.3894 246.0525  1.00270673 10723
